OBJECT_NAME,OBJECT_ID,EPOCH,MEAN_MOTION,ECCENTRICITY,INCLINATION,RA_OF_ASC_NODE,ARG_OF_PERICENTER,MEAN_ANOMALY,EPHEMERIS_TYPE,CLASSIFICATION_TYPE,NORAD_CAT_ID,ELEMENT_SET_NO,REV_AT_EPOCH,BSTAR,MEAN_MOTION_DOT,MEAN_MOTION_DDOT
PERSEUS-M1,2014-033AF,2026-07-04T13:32:37.438080,14.95691619,.00102706,97.9646,129.9824,236.1971,123.8272,0,U,40039,999,65323,.18139034E-3,.1959E-4,0
POLYITAN-1,2014-033AJ,2026-07-04T08:14:36.727296,15.33889888,.00086044,98.0936,213.2341,94.3001,265.9223,0,U,40042,999,65622,.83724936E-3,.27456E-3,0
TIGRISAT,2014-033AK,2026-07-04T08:43:01.388064,14.85224756,.00495846,97.7854,334.9834,19.9094,340.4041,0,U,40043,999,64817,.24133892E-3,.206E-4,0
AEROCUBE 6A,2014-033AM,2026-07-03T10:53:19.101984,14.98249563,.00376587,97.7233,351.2313,321.2886,38.5638,0,U,40045,999,64905,.47526151E-3,.5671E-4,0
AEROCUBE 6B,2014-033AN,2026-07-04T04:10:42.697056,14.99720587,.00377542,97.7223,351.7719,309.2402,50.5472,0,U,40046,999,64930,.53497804E-3,.6644E-4,0
CANX-4,2014-034C,2026-07-04T09:03:02.088864,14.81296926,.00119131,98.3099,61.3195,320.9718,39.0633,0,U,40055,999,64707,.15483266E-3,.1152E-4,0
CANX-5,2014-034D,2026-07-04T09:00:29.398464,14.81314200,.00119023,98.3101,61.3623,321.2001,38.8355,0,U,40056,999,63788,.15410853E-3,.1146E-4,0
UKUBE-1,2014-037F,2026-07-03T23:00:56.825856,15.13812565,.0003183,98.4240,189.9960,106.0506,254.1073,0,U,40074,999,65109,.56511727E-3,.10136E-3,0
BRITE-PL2 (HEWELIUSZ),2014-049B,2026-07-04T01:02:11.887296,14.94655576,.00150118,97.9112,297.1746,57.2784,302.9880,0,U,40119,999,64396,.20566641E-3,.2174E-4,0
AEROCUBE 5C,2015-058B,2026-07-04T08:03:48.128544,14.91527922,.01316373,64.7653,209.2381,56.5890,304.7732,0,U,40965,999,36821,.27656649E-3,.3104E-4,0
AEROCUBE 7,2015-058C,2026-07-04T06:47:45.797280,14.95836497,.01213425,64.7604,191.2627,54.9541,306.2885,0,U,40966,999,36851,.42223492E-3,.531E-4,0
FOX-1A (AO-85),2015-058D,2026-07-04T12:33:30.252384,14.91048439,.01315515,64.7734,225.1060,49.8694,311.3855,0,U,40967,999,11615,.3512886E-3,.394E-4,0
SINOD-D 1,2015-058E,2026-07-04T11:01:51.206880,14.96014874,.01202363,64.7732,204.8176,46.2759,314.8236,0,U,40968,999,11924,.40461129E-3,.5092E-4,0
SNAP-3 ALICE,2015-058G,2026-07-04T07:55:19.293888,15.64598507,.00235635,64.7492,44.4860,357.8028,2.3012,0,U,40970,999,11956,.19474102E-2,.19646E-2,0
LMRST-SAT,2015-058H,2026-07-04T13:12:09.021888,14.90664720,.01331186,64.7739,221.3932,51.8750,309.4273,0,U,40971,999,11614,.34066471E-3,.379E-4,0
SNAP-3 EDDIE,2015-058J,2026-07-04T13:29:31.024032,15.65987185,.00243227,64.7407,34.2735,0.3390,359.7771,0,U,40972,999,12174,.26862482E-2,.290014E-2,0
PROPCUBE 3,2015-058K,2026-07-04T11:25:29.957088,14.94357329,.01249991,64.7664,198.5147,53.1398,308.1098,0,U,40973,999,11738,.43785202E-3,.5341E-4,0
BISONSAT,2015-058L,2026-07-04T05:54:21.382848,15.16671744,.00809582,64.7584,118.4723,40.4413,320.2690,0,U,40974,999,11820,.99021779E-3,.21042E-3,0
SNAP-3 JIMI,2015-058M,2026-07-04T08:42:48.407328,15.02488647,.01071052,64.7641,165.4213,48.5410,312.4844,0,U,40975,999,11680,.65023224E-3,.9639E-4,0
PROPCUBE 1 (FLORA),2015-058N,2026-07-04T14:06:53.425440,14.89296565,.01317493,64.7734,241.3037,54.1532,307.1732,0,U,40976,999,11885,.3205461E-3,.3412E-4,0
SINOD-D 3,2015-058P,2026-07-04T12:15:05.260320,14.94119821,.01202923,64.7705,221.7203,51.2774,309.9020,0,U,40977,999,11734,.43347318E-3,.519E-4,0
RAVAN,2016-067B,2026-07-04T03:43:58.531584,15.56420115,.00016778,97.9852,76.7075,308.8604,51.2499,0,U,41849,999,53033,.11220145E-2,.79818E-3,0
CELTEE 1,2016-067C,2026-07-04T14:08:23.087904,15.19863880,.00018975,98.0647,53.3426,123.3801,236.7614,0,U,41850,999,52852,.46272408E-3,.9856E-4,0
OPTICUBE 04,2016-067D,2026-07-04T13:50:57.334272,15.09741314,.00168913,98.0683,38.7671,61.7150,298.5780,0,U,41851,999,52779,.21614707E-3,.3426E-4,0
AEROCUBE 8D,2016-067E,2026-07-03T21:25:42.449952,15.24636107,.00049779,98.0655,56.3352,83.6012,276.5791,0,U,41852,999,52861,.36506004E-3,.8936E-4,0
AEROCUBE 8C,2016-067F,2026-07-03T14:05:15.643968,15.24882899,.0005433,98.0528,53.2126,21.9953,338.1515,0,U,41853,999,52856,.37755827E-3,.9314E-4,0
CORVUS BC2,2017-042X,2026-07-04T09:35:27.411648,15.06405436,.00139663,97.4083,346.0818,56.8033,303.4532,0,U,42846,999,48965,.35041268E-3,.5115E-4,0
CORVUS BC1,2017-042Y,2026-07-04T09:24:57.360384,15.06574092,.00125265,97.4119,346.9003,35.6313,324.5749,0,U,42847,999,48968,.32203847E-3,.4715E-4,0
MAKERSAT 0,2017-073D,2026-07-03T15:15:45.488160,15.32642938,.01049552,97.4595,67.2865,213.5729,145.8834,0,U,43016,999,46898,.55467001E-3,.20784E-3,0
SIRION PATHFINDER-2,2018-099B,2026-07-04T02:16:00.892128,15.14697580,.00075007,97.4239,233.7506,233.6090,126.4451,0,U,43759,999,41518,.32928266E-3,.6036E-4,0
